#dP2024 10  5  0  0  0.00000000      96 __u+U IGS20 FIT  IAC
## 2334 518400.00000000   900.00000000 60588 0.0000000000000
+   52   G02G03G04G05G06G07G08G09G10G12G13G14G15G16G17G18G19
+        G20G21G22G23G24G25G26G27G28G29G30G31G32R01R02R03R04
+        R05R07R08R09R11R12R14R15R16R17R18R19R20R21R22R24R25
+        R26  0  0  0  0  0  0  0  0  0  0  0  0  0  0  0  0
+          0  0  0  0  0  0  0  0  0  0  0  0  0  0  0  0  0
++         6  6  6  6  7  5  7  5  6  6  5  7  6  6  6  7  6
++         6  6  6  5  6  6  6  6  6  6  5  6  6  6  6  5  5
++         7  7  6  6  5  6  6  6  7  7  7  8  6  6  6  7  6
++         6  0  0  0  0  0  0  0  0  0  0  0  0  0  0  0  0
++         0  0  0  0  0  0  0  0  0  0  0  0  0  0  0  0  0
%c M  cc GPS ccc cccc cccc cccc cccc ccccc ccccc ccccc ccccc
%c cc cc ccc ccc cccc cccc cccc cccc ccccc ccccc ccccc ccccc
%f  0.0000000  0.000000000  0.00000000000  0.000000000000000
%f  0.0000000  0.000000000  0.00000000000  0.000000000000000
%i    0    0    0    0      0      0      0      0         0
%i    0    0    0    0      0      0      0      0         0
/* INFORMATION & ANALYSIS CENTER (IAC)      ULTRA-RAPID DATA
/* S/V CLOCKS ARE ALIGNED TO GNSS TIME                      
/* G:C1WC2W R:C1PC2P E:C1XC5X C:C2IC6I J:C1CC2S             
/* PCV:IGS20_2317 OL/AL:FES2004  NONE     YN ORB:CoN CLK:CoN
*  2024 10 05 11  0  0.00000000
PG02   5964.494631  13929.785021 -21372.298156   -343.702839
PG03  12324.484500  23179.064065  -4571.286900    560.469991
PG04   3041.749563  20029.747283  17111.370094    456.154903
PG05   -340.705149 -19853.431848  17426.010372   -188.805048
PG06  25509.452623  -5352.087914   5468.488021    -16.503845
PG07  21992.362882   7862.135399  13590.737606    -30.587869
PG08  -4780.616167  24838.033245  -7441.795525    374.747983
PG09  11378.425307  11066.233020  21191.826660    385.434765
PG10 -17510.943083  -2320.919277 -19729.602583   -147.889770
PG12  -8096.784498 -24157.324053  -7864.242677   -542.961382
PG13  13493.355151 -22677.861751  -1706.617171    679.968669
PG14  19138.080401   5950.259366 -17494.349515    510.739113
PG15   1123.023131 -25343.817930  -8102.356269    212.147708
PG16  -5791.783371  16836.886335  19220.177290   -162.995107
PG17  17748.043839  -5862.724713 -18519.593381    605.664349
PG18 -22688.302348  -6825.646973  12256.737419   -656.746544
PG19  18679.319376 -13236.558454 -13242.128507    546.679221
PG20   8875.169277 -12731.281827  21635.310869    369.969526
PG21   -128.210013  15148.135640 -21325.258723    100.405253
PG22  15568.249930  -2286.121020 -20946.409601    -68.278725
PG23 -19657.783650 -14310.637075 -10920.894174    335.005598
PG24  -3913.414519 -15538.779957 -21642.629713   -485.617752
PG25 -17295.428167 -20055.579061   3076.190923    499.590162
PG26 -14472.564008   7052.044632  20997.643535     63.205943
PG27 -12532.613199  22969.568108   2617.047489    -34.343934
PG28 -25899.742171   5104.283980   2944.477400   -435.306481
PG29  -8739.630289 -13736.750366  20918.921695   -573.386413
PG30  26438.295806    565.046347   3864.194065   -308.382044
PG31 -20141.370675  10881.337688  13544.269294   -223.818064
PG32 -17457.866481   7961.933442 -18061.421380   -590.196196
PR01   4537.774954 -24027.921779   7245.991339    100.010291
PR02  -2564.488211 -23431.374002  -9805.306194    -25.009570
PR03  -9425.750482  -9658.408767 -21620.193540    108.832279
PR04 -10670.656065   8866.086166 -21377.653249    257.870836
PR05  -6501.232831  22667.679717  -9683.083699    138.690591
PR07   9588.995554   8976.511949  21888.212025     92.290979
PR08  10701.470931  -9246.918828  21291.997369     -6.418313
PR09  13455.053253  16671.133607  13932.211051    212.949861
PR11  19000.519427   3106.566438 -16731.776712     10.072506
PR12   3598.963165 -10762.012807 -22819.908082     45.645313
PR14 -21832.637250 -12915.309554   2592.603713     27.010882
PR15 -18102.217546  -1828.692021  17895.039946     75.180281
PR16  -3648.084178  10567.512584  22941.132114     29.703725
PR17 -18162.211679   -510.633042  17941.097998    128.029704
PR18 -23579.373052   8939.897399   3726.871945    165.388598
PR19 -18851.524892  13247.323883 -10956.458936   -293.782425
PR20    821.205930  10834.492119 -23062.385161   -119.998389
PR21  17522.941151   1150.983365 -18478.743092   -140.186467
PR22  23752.882228  -8981.624006  -2402.278263     29.495714
PR24  -2076.941404 -11016.227954  22932.255801    -74.781072
PR25  18425.644586   1192.437165 -17576.401458    -94.865274
PR26  10777.370444  -7560.362161  21859.517775     61.070162
*  2024 10 05 11 15  0.00000000
PG02   3463.127779  14447.517568 -21545.573714   -343.695359
PG03  11799.468732  22747.099484  -7363.556452    560.481219
PG04   2098.602848  21630.218071  15182.540790    456.161183
PG05   1106.295915 -18302.096765  19010.180126   -188.806512
PG06  25975.178776  -5238.199521   2611.061605    -16.528192
PG07  20443.874536   8216.731112  15678.186325    -30.584368
PG08  -5313.093321  25372.925754  -4696.616444    374.758789
PG09  10417.324289  13268.180624  20405.328192    385.449551
PG10 -18758.371158  -4134.425826 -18277.341478   -147.901433
PG12  -7362.665566 -23427.302644 -10455.779886   -542.964003
PG13  13702.624244 -22555.994662   1185.223613    679.970243
PG14  20097.879582   7604.120195 -15710.388298    510.746720
PG15   1603.674598 -25964.916422  -5431.019688    212.151872
PG16  -7134.440669  14911.949652  20346.974527   -162.986322
PG17  16827.669063  -3785.584530 -19827.541027    605.652618
PG18 -21192.326417  -7131.719429  14531.900800   -656.747991
PG19  18060.487302 -11713.381190 -15420.864611    546.683542
PG20  10682.954538 -11052.435588  21727.822344    369.969251
PG21  -2601.344972  15580.972217 -20763.839457    100.404290
PG22  16769.463797   -160.391586 -20116.206757    -68.281654
PG23 -20210.425939 -15271.652766  -8327.276541    335.013001
PG24  -1577.109315 -16028.035144 -21543.682015   -485.616916
PG25 -17224.014571 -20398.844147    266.058178    499.590064
PG26 -16030.654469   5213.023762  20433.899708     63.197843
PG27 -12606.473952  22396.620145   5445.669227    -34.344144
PG28 -26110.576995   4881.275639     93.893068   -435.318333
PG29  -7576.704751 -15774.567767  19901.671017   -573.383885
PG30  25899.580229    925.924334   6570.088640   -308.375307
PG31 -21594.312868  10814.854520  11232.979185   -223.817639
PG32 -16740.790446   5882.765109 -19483.123678   -590.192391
PR01   4387.344650 -22951.051138  10217.992540    100.010911
PR02  -2674.342784 -24467.541286  -6802.214151    -25.010073
PR03  -9385.663802 -12253.208164 -20289.681795    108.831614
PR04 -10471.309564   6163.810366 -22402.312189    257.872942
PR05  -6267.982738  21306.221092 -12515.465468    138.691003
PR07   9537.138679  11595.269647  20638.076167     92.291800
PR08  10528.042114  -6572.218137  22345.038240     -6.418527
PR09  11890.405657  15666.245275  16313.825423    212.952432
PR11  20690.921944   4024.493685 -14367.231173     10.071917
PR12   5994.584343  -9252.421600 -22976.592461     45.645846
PR14 -21996.841530 -12879.279604   -603.789157     27.011253
PR15 -19902.397837  -2853.564137  15713.380816     75.178806
PR16  -6052.938227   9062.994014  23073.016594     29.704239
PR17 -16041.760584  -1475.069436  19808.627097    128.032498
PR18 -22907.134791   8823.954128   6881.544370    165.389995
PR19 -19832.279445  13918.817100  -7994.761289   -293.782669
PR20  -1719.310806  12044.158747 -22401.528100   -119.998604
PR21  15334.449901   2130.218571 -20254.755948   -140.189212
PR22  23242.694002  -8902.239777  -5565.473272     29.486436
PR24    389.809638 -12318.571757  22350.329244    -74.782131
PR25  16315.888216   2084.964691 -19476.889886    -94.862381
PR26  10632.312246  -4817.133465  22693.158308     61.092271
EOF
